start=new Date('2022-12-20T00:00:00.000Z').valueOf();
sats=[{"LAUNCH_DATE":"2022-03-19","MEAN_MOTION_DDOT":"0.0000000000000","RA_OF_ASC_NODE":"328.5754","REF_FRAME":"TEME","REV_AT_EPOCH":"4311","CENTER_NAME":"EARTH","TIME_SYSTEM":"UTC","TLE_LINE2":"2 52094  53.2170 328.5754 0002020  42.0028 318.1118 15.08821022 43115","MEAN_ANOMALY":"318.1118","COUNTRY_CODE":"US","SEMIMAJOR_AXIS":"6917.938","OBJECT_ID":"2022-029G","EPHEMERIS_TYPE":"0","ECCENTRICITY":"0.00020200","DECAY_DATE":null,"CLASSIFICATION_TYPE":"U","GP_ID":"220968967","MEAN_MOTION":"15.08821022","FILE":"3711774","PERIAPSIS":"538.406","MEAN_MOTION_DOT":"-0.00002232","MEAN_ELEMENT_THEORY":"SGP4","OBJECT_NAME":"STARLINK-3714","PERIOD":"95.439","ELEMENT_SET_NO":"999","RCS_SIZE":"LARGE","SITE":"AFETR","TLE_LINE1":"1 52094U 22029G   22353.65073050 -.00002232  00000-0 -12221-3 0  9998","INCLINATION":"53.2170","OBJECT_TYPE":"PAYLOAD","BSTAR":"-0.00012221000000","APOAPSIS":"541.201","NORAD_CAT_ID":"52094","ARG_OF_PERICENTER":"42.0028","EPOCH":"2022-12-19T15:37:03.115200"},{"OBJECT_TYPE":"PAYLOAD","BSTAR":"0.00004366900000","ARG_OF_PERICENTER":"39.9348","EPOCH":"2022-12-19T15:21:09.336960","APOAPSIS":"541.467","NORAD_CAT_ID":"52095","ELEMENT_SET_NO":"999","RCS_SIZE":"LARGE","OBJECT_NAME":"STARLINK-3701","MEAN_ELEMENT_THEORY":"SGP4","PERIOD":"95.438","TLE_LINE1":"1 52095U 22029H   22353.63969140  .00000407  00000-0  43669-4 0  9992","SITE":"AFETR","INCLINATION":"53.2171","TLE_LINE2":"2 52095  53.2171 328.6190 0002445  39.9348 320.1824 15.08830273 43118","MEAN_ANOMALY":"320.1824","COUNTRY_CODE":"US","EPHEMERIS_TYPE":"0","SEMIMAJOR_AXIS":"6917.910","OBJECT_ID":"2022-029H","DECAY_DATE":null,"ECCENTRICITY":"0.00024450","FILE":"3711774","GP_ID":"220969217","MEAN_MOTION":"15.08830273","PERIAPSIS":"538.084","MEAN_MOTION_DOT":"0.00000407","CLASSIFICATION_TYPE":"U","MEAN_MOTION_DDOT":"0.0000000000000","REF_FRAME":"TEME","RA_OF_ASC_NODE":"328.6190","LAUNCH_DATE":"2022-03-19","CENTER_NAME":"EARTH","REV_AT_EPOCH":"4311","TIME_SYSTEM":"UTC"},{"TLE_LINE2":"2 52096  53.2187 317.5178 0002627  25.7266 334.3856 15.08849748 43279","MEAN_ANOMALY":"334.3856","COUNTRY_CODE":"US","EPHEMERIS_TYPE":"0","SEMIMAJOR_AXIS":"6917.851","OBJECT_ID":"2022-029J","DECAY_DATE":null,"ECCENTRICITY":"0.00026270","MEAN_MOTION":"15.08849748","GP_ID":"220969964","FILE":"3711774","PERIAPSIS":"537.898","MEAN_MOTION_DOT":"0.00005315","CLASSIFICATION_TYPE":"U","RA_OF_ASC_NODE":"317.5178","MEAN_MOTION_DDOT":"0.0000000000000","REF_FRAME":"TEME","LAUNCH_DATE":"2022-03-19","REV_AT_EPOCH":"4327","CENTER_NAME":"EARTH","TIME_SYSTEM":"UTC","OBJECT_TYPE":"PAYLOAD","BSTAR":"0.00035173000000","ARG_OF_PERICENTER":"25.7266","EPOCH":"2022-12-19T21:12:12.922560","APOAPSIS":"541.533","NORAD_CAT_ID":"52096","ELEMENT_SET_NO":"999","RCS_SIZE":"LARGE","MEAN_ELEMENT_THEORY":"SGP4","OBJECT_NAME":"STARLINK-3717","PERIOD":"95.437","SITE":"AFETR","TLE_LINE1":"1 52096U 22029J   22353.88348290  .00005315  00000-0  35173-3 0  9990","INCLINATION":"53.2187"},{"TLE_LINE2":"2 52098  53.2167 328.6076 0002148  36.6226 323.4913 15.08851270 43113","MEAN_ANOMALY":"323.4913","COUNTRY_CODE":"US","SEMIMAJOR_AXIS":"6917.846","OBJECT_ID":"2022-029L","EPHEMERIS_TYPE":"0","ECCENTRICITY":"0.00021480","DECAY_DATE":null,"CLASSIFICATION_TYPE":"U","GP_ID":"220968217","PERIAPSIS":"538.225","FILE":"3711774","MEAN_MOTION":"15.08851270","MEAN_MOTION_DOT":"0.00005337","LAUNCH_DATE":"2022-03-19","REF_FRAME":"TEME","MEAN_MOTION_DDOT":"0.0000000000000","RA_OF_ASC_NODE":"328.6076","CENTER_NAME":"EARTH","REV_AT_EPOCH":"4311","TIME_SYSTEM":"UTC","BSTAR":"0.00035306000000","OBJECT_TYPE":"PAYLOAD","NORAD_CAT_ID":"52098","APOAPSIS":"541.197","ARG_OF_PERICENTER":"36.6226","EPOCH":"2022-12-19T15:26:26.201184","OBJECT_NAME":"STARLINK-3665","MEAN_ELEMENT_THEORY":"SGP4","PERIOD":"95.437","ELEMENT_SET_NO":"999","RCS_SIZE":"LARGE","TLE_LINE1":"1 52098U 22029L   22353.64335881  .00005337  00000-0  35306-3 0  9990","SITE":"AFETR","INCLINATION":"53.2167"},{"MEAN_MOTION_DDOT":"0.0000000000000","RA_OF_ASC_NODE":"331.6182","REF_FRAME":"TEME","LAUNCH_DATE":"2022-03-19","REV_AT_EPOCH":"4301","CENTER_NAME":"EARTH","TIME_SYSTEM":"UTC","COUNTRY_CODE":"US","MEAN_ANOMALY":"326.5467","TLE_LINE2":"2 52100  53.2187 331.6182 0002032  33.5654 326.5467 15.08832612 43010","EPHEMERIS_TYPE":"0","OBJECT_ID":"2022-029N","SEMIMAJOR_AXIS":"6917.903","DECAY_DATE":null,"ECCENTRICITY":"0.00020320","MEAN_MOTION_DOT":"0.00000782","MEAN_MOTION":"15.08832612","GP_ID":"220936303","FILE":"3711365","PERIAPSIS":"538.362","CLASSIFICATION_TYPE":"U","RCS_SIZE":"LARGE","ELEMENT_SET_NO":"999","PERIOD":"95.438","OBJECT_NAME":"STARLINK-3702","MEAN_ELEMENT_THEORY":"SGP4","TLE_LINE1":"1 52100U 22029N   22352.97360860  .00000782  00000-0  67270-4 0  9999","SITE":"AFETR","INCLINATION":"53.2187","OBJECT_TYPE":"PAYLOAD","BSTAR":"0.00006727000000","EPOCH":"2022-12-18T23:21:59.783040","ARG_OF_PERICENTER":"33.5654","APOAPSIS":"541.174","NORAD_CAT_ID":"52100"},{"BSTAR":"-0.00001025200000","OBJECT_TYPE":"PAYLOAD","ARG_OF_PERICENTER":"47.3088","EPOCH":"2022-12-19T15:05:15.795456","NORAD_CAT_ID":"52101","APOAPSIS":"541.608","TLE_LINE1":"1 52101U 22029P   22353.62865504 -.00000452  00000-0 -10252-4 0  9992","SITE":"AFETR","INCLINATION":"53.2194","ELEMENT_SET_NO":"999","RCS_SIZE":"LARGE","OBJECT_NAME":"STARLINK-3703","MEAN_ELEMENT_THEORY":"SGP4","PERIOD":"95.438","DECAY_DATE":null,"ECCENTRICITY":"0.00026330","GP_ID":"220969718","FILE":"3711774","MEAN_MOTION":"15.08826636","PERIAPSIS":"537.965","MEAN_MOTION_DOT":"-0.00000452","CLASSIFICATION_TYPE":"U","TLE_LINE2":"2 52101  53.2194 328.6743 0002633  47.3088 312.8126 15.08826636 43108","COUNTRY_CODE":"US","MEAN_ANOMALY":"312.8126","EPHEMERIS_TYPE":"0","SEMIMAJOR_AXIS":"6917.921","OBJECT_ID":"2022-029P","TIME_SYSTEM":"UTC","REF_FRAME":"TEME","MEAN_MOTION_DDOT":"0.0000000000000","RA_OF_ASC_NODE":"328.6743","LAUNCH_DATE":"2022-03-19","CENTER_NAME":"EARTH","REV_AT_EPOCH":"4310"},{"BSTAR":"0.00004087000000","OBJECT_TYPE":"PAYLOAD","NORAD_CAT_ID":"52102","APOAPSIS":"541.322","ARG_OF_PERICENTER":"36.5583","EPOCH":"2022-12-19T15:18:33.207840","SITE":"AFETR","TLE_LINE1":"1 52102U 22029Q   22353.63788435  .00000362  00000-0  40870-4 0  9998","INCLINATION":"53.2188","MEAN_ELEMENT_THEORY":"SGP4","OBJECT_NAME":"STARLINK-3709","PERIOD":"95.437","ELEMENT_SET_NO":"999","RCS_SIZE":"LARGE","ECCENTRICITY":"0.00022890","DECAY_DATE":null,"CLASSIFICATION_TYPE":"U","PERIAPSIS":"538.155","GP_ID":"220969464","FILE":"3711774","MEAN_MOTION":"15.08842394","MEAN_MOTION_DOT":"0.00000362","TLE_LINE2":"2 52102  53.2188 318.6295 0002289  36.5583 323.5565 15.08842394 43240","COUNTRY_CODE":"US","MEAN_ANOMALY":"323.5565","SEMIMAJOR_AXIS":"6917.873","OBJECT_ID":"2022-029Q","EPHEMERIS_TYPE":"0","TIME_SYSTEM":"UTC","LAUNCH_DATE":"2022-03-19","RA_OF_ASC_NODE":"318.6295","MEAN_MOTION_DDOT":"0.0000000000000","REF_FRAME":"TEME","REV_AT_EPOCH":"4324","CENTER_NAME":"EARTH"},{"MEAN_ANOMALY":"321.2319","COUNTRY_CODE":"US","TLE_LINE2":"2 52103  53.2181 317.5431 0002352  38.8842 321.2319 15.08838231 43278","OBJECT_ID":"2022-029R","SEMIMAJOR_AXIS":"6917.886","EPHEMERIS_TYPE":"0","ECCENTRICITY":"0.00023520","DECAY_DATE":null,"CLASSIFICATION_TYPE":"U","MEAN_MOTION_DOT":"0.00001474","GP_ID":"220968718","PERIAPSIS":"538.124","FILE":"3711774","MEAN_MOTION":"15.08838231","LAUNCH_DATE":"2022-03-19","REF_FRAME":"TEME","MEAN_MOTION_DDOT":"0.0000000000000","RA_OF_ASC_NODE":"317.5431","CENTER_NAME":"EARTH","REV_AT_EPOCH":"4327","TIME_SYSTEM":"UTC","OBJECT_TYPE":"PAYLOAD","BSTAR":"0.00011072000000","APOAPSIS":"541.378","NORAD_CAT_ID":"52103","EPOCH":"2022-12-19T21:01:37.769376","ARG_OF_PERICENTER":"38.8842","PERIOD":"95.438","OBJECT_NAME":"STARLINK-3705","MEAN_ELEMENT_THEORY":"SGP4","RCS_SIZE":"LARGE","ELEMENT_SET_NO":"999","TLE_LINE1":"1 52103U 22029R   22353.87613159  .00001474  00000-0  11072-3 0  9991","SITE":"AFETR","INCLINATION":"53.2181"},{"ECCENTRICITY":"0.00029550","DECAY_DATE":null,"CLASSIFICATION_TYPE":"U","MEAN_MOTION_DOT":"0.00001719","FILE":"3711999","GP_ID":"220977208","PERIAPSIS":"537.691","MEAN_MOTION":"15.08843382","COUNTRY_CODE":"US","MEAN_ANOMALY":"335.3286","TLE_LINE2":"2 52105  53.2185 316.9830 0002955  24.7848 335.3286 15.08843382 43293","OBJECT_ID":"2022-029T","SEMIMAJOR_AXIS":"6917.870","EPHEMERIS_TYPE":"0","TIME_SYSTEM":"UTC","LAUNCH_DATE":"2022-03-19","REF_FRAME":"TEME","MEAN_MOTION_DDOT":"0.0000000000000","RA_OF_ASC_NODE":"316.9830","REV_AT_EPOCH":"4329","CENTER_NAME":"EARTH","OBJECT_TYPE":"PAYLOAD","BSTAR":"0.00012606000000","NORAD_CAT_ID":"52105","APOAPSIS":"541.779","EPOCH":"2022-12-20T00:03:10.371168","ARG_OF_PERICENTER":"24.7848","TLE_LINE1":"1 52105U 22029T   22354.00220337  .00001719  00000-0  12606-3 0  9997","SITE":"AFETR","INCLINATION":"53.2185","PERIOD":"95.437","MEAN_ELEMENT_THEORY":"SGP4","OBJECT_NAME":"STARLINK-3706","RCS_SIZE":"LARGE","ELEMENT_SET_NO":"999"},{"OBJECT_TYPE":"PAYLOAD","BSTAR":"0.00006040400000","EPOCH":"2022-12-19T08:38:24.404352","ARG_OF_PERICENTER":"31.9326","NORAD_CAT_ID":"52106","APOAPSIS":"541.460","TLE_LINE1":"1 52106U 22029U   22353.36000468  .00000673  00000-0  60404-4 0  9995","SITE":"AFETR","INCLINATION":"53.2191","RCS_SIZE":"LARGE","ELEMENT_SET_NO":"999","PERIOD":"95.438","MEAN_ELEMENT_THEORY":"SGP4","OBJECT_NAME":"STARLINK-3670","DECAY_DATE":null,"ECCENTRICITY":"0.00024650","MEAN_MOTION_DOT":"0.00000673","FILE":"3711365","GP_ID":"220936554","MEAN_MOTION":"15.08836882","PERIAPSIS":"538.050","CLASSIFICATION_TYPE":"U","COUNTRY_CODE":"US","MEAN_ANOMALY":"328.1815","TLE_LINE2":"2 52106  53.2191 329.8800 0002465  31.9326 328.1815 15.08836882 43068","EPHEMERIS_TYPE":"0","OBJECT_ID":"2022-029U","SEMIMAJOR_AXIS":"6917.890","TIME_SYSTEM":"UTC","MEAN_MOTION_DDOT":"0.0000000000000","RA_OF_ASC_NODE":"329.8800","REF_FRAME":"TEME","LAUNCH_DATE":"2022-03-19","REV_AT_EPOCH":"4306","CENTER_NAME":"EARTH"}];
